IRIDIUM 126             
1 42809U 17039G   25333.05252267  .00000362  00000+0  12224-3 0  9992
2 42809  86.3965  77.3072 0001928  93.0985 267.0432 14.34223879441266
IRIDIUM 124             
1 42810U 17039H   25333.17162097  .00000420  00000+0  11887-3 0  9997
2 42810  86.4507  13.9806 0002123  99.8631 260.2810 14.43281607446265
IRIDIUM 128             
1 42811U 17039J   25332.83396598  .00000342  00000+0  11506-3 0  9996
2 42811  86.3952 108.9320 0002129 104.0926 256.0506 14.34217789441267
IRIDIUM 121             
1 42812U 17039K   25333.21109565  .00000271  00000+0  89722-4 0  9993
2 42812  86.3967  77.2673 0002196  96.9515 263.1930 14.34219971441164
IRIDIUM 133             
1 42955U 17061A   25333.14475319  .00000127  00000+0  38346-4 0  9997
2 42955  86.3954 108.9148 0002048  96.3282 263.8147 14.34217038426104
IRIDIUM 100             
1 42956U 17061B   25332.85933296  .00000351  00000+0  11818-3 0  9991
2 42956  86.3952 108.9576 0001914  94.6139 265.5275 14.34220148426063
IRIDIUM 122             
1 42957U 17061C   25332.82761987  .00000184  00000+0  58708-4 0  9999
2 42957  86.3952 108.9704 0001968  94.7442 265.3979 14.34217394426062
IRIDIUM 129             
1 42958U 17061D   25332.85299103  .00000269  00000+0  88823-4 0  9994
2 42958  86.3952 109.0247 0002141  83.7695 276.3744 14.34219615426081
